NORAD_CAT_ID,OBJECT_NAME,OBJECT_TYPE,EPOCH,MEAN_MOTION,ECCENTRICITY,INCLINATION,RA_OF_ASC_NODE,ARG_OF_PERICENTER,MEAN_ANOMALY,BSTAR,MEAN_MOTION_DOT,MEAN_MOTION_DDOT,TLE_LINE0,TLE_LINE1,TLE_LINE2,SEMIMAJOR_AXIS,PERIOD,APOGEE,PERIGEE,DECAYED
52311.0,STARLINK-3750,PAYLOAD,2023-04-17 20:02:26,15.08835447,0.0001428,53.2172,153.5261,97.6844,262.431,5.472e-05,5.83e-06,0.0,0 STARLINK-3750,1 52311U 22041BC  23107.83502704  .00000583  00000-0  54720-4 0  9991,2 52311  53.2172 153.5261 0001428  97.6844 262.4310 15.08835447 56318,6917.894,95.438,540.747,538.771,0.0
52311.0,STARLINK-3750,PAYLOAD,2023-04-18 08:45:31,15.08842128,0.0001411,53.2182,151.1475,94.9844,265.131,0.00012354,1.679e-05,0.0,0 STARLINK-3750,1 52311U 22041BC  23108.36494304  .00001679  00000-0  12354-3 0  9999,2 52311  53.2182 151.1475 0001411  94.9844 265.1310 15.08842128 56394,6917.874,95.437,540.715,538.763,0.0
52311.0,STARLINK-3750,PAYLOAD,2023-04-18 19:53:13,15.08841216,0.0001207,53.2151,149.0632,77.1119,283.0008,7.8419e-05,9.6e-06,0.0,0 STARLINK-3750,1 52311U 22041BC  23108.82862476  .00000960  00000-0  78419-4 0  9996,2 52311  53.2151 149.0632 0001207  77.1119 283.0008 15.08841216 56460,6917.877,95.437,540.577,538.907,0.0
52311.0,STARLINK-3750,PAYLOAD,2023-04-19 02:14:46,15.08830974,0.0001277,53.2153,147.8741,78.3037,281.8098,0.00016038,2.265e-05,0.0,0 STARLINK-3750,1 52311U 22041BC  23109.09359009  .00002265  00000-0  16038-3 0  9997,2 52311  53.2153 147.8741 0001277  78.3037 281.8098 15.08830974 56507,6917.908,95.438,540.656,538.89,0.0
52311.0,STARLINK-3750,PAYLOAD,2023-04-19 11:47:04,15.0883857,0.0001359,53.215,146.0895,77.1942,282.9202,0.00010688,1.413e-05,0.0,0 STARLINK-3750,1 52311U 22041BC  23109.49102860  .00001413  00000-0  10688-3 0  9991,2 52311  53.2150 146.0895 0001359  77.1942 282.9202 15.08838570 56563,6917.885,95.438,540.69,538.81,0.0
52311.0,STARLINK-3750,PAYLOAD,2023-04-19 19:44:00,15.08841134,0.0001387,53.216,144.6036,78.4434,281.6714,0.0001047,1.379e-05,0.0,0 STARLINK-3750,1 52311U 22041BC  23109.82222720  .00001379  00000-0  10470-3 0  9996,2 52311  53.2160 144.6036 0001387  78.4434 281.6714 15.08841134 56616,6917.877,95.437,540.701,538.782,0.0
52311.0,STARLINK-3750,PAYLOAD,2023-04-20 02:05:33,15.08843472,0.0001607,53.2159,143.4155,78.0124,282.1048,3.4969e-05,2.69e-06,0.0,0 STARLINK-3750,1 52311U 22041BC  23110.08718824  .00000269  00000-0  34969-4 0  9998,2 52311  53.2159 143.4155 0001607  78.0124 282.1048 15.08843472 56657,6917.87,95.437,540.846,538.623,0.0
52311.0,STARLINK-3750,PAYLOAD,2023-04-20 11:37:51,15.08843068,0.0001288,53.2152,141.6306,63.5348,296.5776,0.00010708,1.417e-05,0.0,0 STARLINK-3750,1 52311U 22041BC  23110.48462559  .00001417  00000-0  10708-3 0  9993,2 52311  53.2152 141.6306 0001288  63.5348 296.5776 15.08843068 56715,6917.871,95.437,540.627,538.845,0.0
52311.0,STARLINK-3750,PAYLOAD,2023-04-20 19:34:47,15.08841699,0.000151,53.2161,140.1458,69.3813,290.7341,6.1325e-05,6.88e-06,0.0,0 STARLINK-3750,1 52311U 22041BC  23110.81582746  .00000688  00000-0  61325-4 0  9992,2 52311  53.2161 140.1458 0001510  69.3813 290.7341 15.08841699 56763,6917.875,95.437,540.785,538.696,0.0
52311.0,STARLINK-3750,PAYLOAD,2023-04-21 08:17:53,15.08830919,0.0001148,53.216,137.7659,79.0147,281.0974,0.00014791,2.066e-05,0.0,0 STARLINK-3750,1 52311U 22041BC  23111.34575241  .00002066  00000-0  14791-3 0  9999,2 52311  53.2160 137.7659 0001148  79.0147 281.0974 15.08830919 56849,6917.908,95.438,540.567,538.979,0.0
52311.0,STARLINK-3750,PAYLOAD,2023-04-21 13:04:02,15.08838906,0.0001383,53.2157,136.8714,85.958,274.157,3.2745e-05,2.33e-06,0.0,0 STARLINK-3750,1 52311U 22041BC  23111.54447013  .00000233  00000-0  32745-4 0  9990,2 52311  53.2157 136.8714 0001383  85.9580 274.1570 15.08838906 56877,6917.884,95.438,540.705,538.792,0.0
52311.0,STARLINK-3750,PAYLOAD,2023-04-22 01:47:06,15.08841925,0.0001277,53.2152,134.4937,82.862,277.2518,8.4841e-05,1.063e-05,0.0,0 STARLINK-3750,1 52311U 22041BC  23112.07438646  .00001063  00000-0  84841-4 0  9997,2 52311  53.2152 134.4937 0001277  82.8620 277.2518 15.08841925 56956,6917.875,95.437,540.623,538.856,0.0
52311.0,STARLINK-3750,PAYLOAD,2023-04-22 12:54:48,15.08849524,0.0001359,53.2157,132.4108,97.2572,262.8575,0.00011112,1.481e-05,0.0,0 STARLINK-3750,1 52311U 22041BC  23112.53805920  .00001481  00000-0  11112-3 0  9995,2 52311  53.2157 132.4108 0001359  97.2572 262.8575 15.08849524 57021,6917.851,95.437,540.656,538.776,0.0
52311.0,STARLINK-3750,PAYLOAD,2023-04-23 12:45:37,15.08831624,0.0002304,53.2151,127.9492,80.1466,279.9786,1.8816e-06,-2.58e-06,0.0,0 STARLINK-3750,1 52311U 22041BC  23113.53168025 -.00000258  00000-0  18816-5 0  9996,2 52311  53.2151 127.9492 0002304  80.1466 279.9786 15.08831624 57175,6917.906,95.438,541.365,538.177,0.0
52311.0,STARLINK-3750,PAYLOAD,2023-04-24 11:00:59,15.08848528,0.0001473,53.2182,123.7856,99.9218,260.1941,5.3648e-05,5.66e-06,0.0,0 STARLINK-3750,1 52311U 22041BC  23114.45902498  .00000566  00000-0  53648-4 0  9990,2 52311  53.2182 123.7856 0001473  99.9218 260.1941 15.08848528 57318,6917.854,95.437,540.738,538.7,0.0
52311.0,STARLINK-3750,PAYLOAD,2023-04-25 12:27:11,15.08825167,0.0001063,53.2155,119.0307,96.2144,263.897,-4.9427e-05,-1.074e-05,0.0,0 STARLINK-3750,1 52311U 22041BC  23115.51888560 -.00001074  00000-0 -49427-4 0  9998,2 52311  53.2155 119.0307 0001063  96.2144 263.8970 15.08825167 57473,6917.926,95.438,540.526,539.055,0.0
52311.0,STARLINK-3750,PAYLOAD,2023-04-26 12:17:58,15.08830737,0.0001111,53.2156,114.5701,95.168,264.9439,1.8691e-05,1e-07,0.0,0 STARLINK-3750,1 52311U 22041BC  23116.51248661  .00000010  00000-0  18691-4 0  9997,2 52311  53.2156 114.5701 0001111  95.1680 264.9439 15.08830737 57627,6917.909,95.438,540.542,539.005,0.0
52311.0,STARLINK-3750,PAYLOAD,2023-04-26 17:04:08,15.08833285,0.0001157,53.216,113.6775,87.8266,272.2858,3.6539e-05,2.94e-06,0.0,0 STARLINK-3750,1 52311U 22041BC  23116.71120585  .00000294  00000-0  36539-4 0  9998,2 52311  53.2160 113.6775 0001157  87.8266 272.2858 15.08833285 57652,6917.901,95.438,540.566,538.966,0.0
52311.0,STARLINK-3750,PAYLOAD,2023-04-27 08:57:59,15.08835141,0.0001132,53.2161,110.7032,87.3828,272.7294,0.00016296,2.306e-05,0.0,0 STARLINK-3750,1 52311U 22041BC  23117.37360329  .00002306  00000-0  16296-3 0  9996,2 52311  53.2161 110.7032 0001132  87.3828 272.7294 15.08835141 57752,6917.895,95.438,540.543,538.977,0.0
52311.0,STARLINK-3750,PAYLOAD,2023-04-28 05:37:58,15.08853024,0.0001108,53.2158,106.8381,85.0317,275.0802,0.00017916,2.566e-05,0.0,0 STARLINK-3750,1 52311U 22041BC  23118.23471005  .00002566  00000-0  17916-3 0  9994,2 52311  53.2158 106.8381 0001108  85.0317 275.0802 15.08853024 57887,6917.841,95.437,540.472,538.939,0.0
52311.0,STARLINK-3750,PAYLOAD,2023-04-28 10:24:07,15.08857214,0.0001133,53.216,105.9458,85.0656,275.0465,0.0002094,3.048e-05,0.0,0 STARLINK-3750,1 52311U 22041BC  23118.43342519  .00003048  00000-0  20940-3 0  9990,2 52311  53.2160 105.9458 0001133  85.0656 275.0465 15.08857214 57913,6917.828,95.436,540.477,538.909,0.0
52311.0,STARLINK-3750,PAYLOAD,2023-04-28 16:45:41,15.08845256,0.0001568,53.2166,104.7618,59.9945,300.1202,7.6833e-05,9.35e-06,0.0,0 STARLINK-3750,1 52311U 22041BC  23118.69839802  .00000935  00000-0  76833-4 0  9999,2 52311  53.2166 104.7618 0001568  59.9945 300.1202 15.08845256 57953,6917.864,95.437,540.814,538.645,0.0
52311.0,STARLINK-3750,PAYLOAD,2023-04-29 10:14:55,15.0884601,0.0001219,53.216,101.4847,95.6054,264.5077,-5.426e-06,-3.74e-06,0.0,0 STARLINK-3750,1 52311U 22041BC  23119.42703596 -.00000374  00000-0 -54260-5 0  9991,2 52311  53.2160 101.4847 0001219  95.6054 264.5077 15.08846010 58061,6917.862,95.437,540.57,538.884,0.0
52311.0,STARLINK-3750,PAYLOAD,2023-04-30 08:30:19,15.08845302,0.00013,53.2166,97.3218,91.7558,268.3583,-0.00010502,-1.959e-05,0.0,0 STARLINK-3750,1 52311U 22041BC  23120.35439747 -.00001959  00000-0 -10502-3 0  9998,2 52311  53.2166  97.3218 0001300  91.7558 268.3583 15.08845302 58202,6917.864,95.437,540.629,538.83,0.0
52311.0,STARLINK-3750,PAYLOAD,2023-05-01 08:21:07,15.08838092,0.000142,53.2174,92.8601,103.5998,256.5153,4.9245e-05,4.96e-06,0.0,0 STARLINK-3750,1 52311U 22041BC  23121.34799860  .00000496  00000-0  49245-4 0  9993,2 52311  53.2174  92.8601 0001420 103.5998 256.5153 15.08838092 58356,6917.886,95.438,540.734,538.769,0.0
52311.0,STARLINK-3750,PAYLOAD,2023-05-02 05:01:08,15.08837181,0.0001371,53.2172,88.9934,110.3169,249.7971,6.7978e-05,7.94e-06,0.0,0 STARLINK-3750,1 52311U 22041BC  23122.20912126  .00000794  00000-0  67978-4 0  9995,2 52311  53.2172  88.9934 0001371 110.3169 249.7971 15.08837181 58484,6917.889,95.438,540.702,538.806,0.0
52311.0,STARLINK-3750,PAYLOAD,2023-05-02 08:11:54,15.08840038,0.0001257,53.2172,88.3995,95.9101,264.2034,7.3689e-05,8.85e-06,0.0,0 STARLINK-3750,1 52311U 22041BC  23122.34160011  .00000885  00000-0  73689-4 0  9995,2 52311  53.2172  88.3995 0001257  95.9101 264.2034 15.08840038 58502,6917.88,95.438,540.615,538.876,0.0
52311.0,STARLINK-3750,PAYLOAD,2023-05-02 20:54:59,15.08835489,0.0001199,53.2166,86.022,93.0618,267.0511,5.4695e-05,5.83e-06,0.0,0 STARLINK-3750,1 52311U 22041BC  23122.87152440  .00000583  00000-0  54695-4 0  9991,2 52311  53.2166  86.0220 0001199  93.0618 267.0511 15.08835489 58581,6917.894,95.438,540.589,538.93,0.0
52311.0,STARLINK-3750,PAYLOAD,2023-05-03 04:51:55,15.08822017,0.0001342,53.2173,84.5349,98.3943,261.7202,0.0002677,3.973e-05,0.0,0 STARLINK-3750,1 52311U 22041BC  23123.20272685  .00003973  00000-0  26770-3 0  9991,2 52311  53.2173  84.5349 0001342  98.3943 261.7202 15.08822017 58630,6917.935,95.439,540.729,538.872,0.0
52311.0,STARLINK-3750,PAYLOAD,2023-05-03 08:02:42,15.08803638,0.0001455,53.2169,83.9397,94.2016,265.9142,0.00056377,8.687e-05,0.0,0 STARLINK-3750,1 52311U 22041BC  23123.33521167  .00008687  00000-0  56377-3 0  9990,2 52311  53.2169  83.9397 0001455  94.2016 265.9142 15.08803638 58651,6917.992,95.44,540.863,538.85,0.0
